{
  "type": "FeatureCollection",
  "features": [
    {
      "type": "Feature",
      "properties": {
        "norad_id": 30004,
        "name": "FENGYUN 1C DEB",
        "group": "fengyun-1c-debris",
        "lat": -79.71075513993306,
        "lon": -65.55838861652046,
        "alt_km": 824.5633367430364,
        "timestamp": "2025-12-22T11:33:20.712488+00:00",
        "meta_object_name": "FENGYUN 1C DEB",
        "meta_object_id": "1999-025MD",
        "meta_epoch": "2025-12-22T02:23:07.277856",
        "meta_mean_motion": 14.170853,
        "meta_eccentricity": 0.0038458,
        "meta_inclination": 99.2238,
        "meta_ra_of_asc_node": 177.5671,
        "meta_arg_of_pericenter": 316.3097,
        "meta_mean_anomaly": 161.2404,
        "meta_ephemeris_type": 0,
        "meta_classification_type": "U",
        "meta_norad_cat_id": 30004,
        "meta_element_set_no": 999,
        "meta_rev_at_epoch": 97439,
        "meta_bstar": 0.00063683,
        "meta_mean_motion_dot": 1.243e-05,
        "meta_mean_motion_ddot": 0,
        "tle_line1": "1 30004U 99025MD  25356.09938979  .00001243  00000+0  63683-3 0  9995",
        "tle_line2": "2 30004  99.2238 177.5671 0038458 316.3097 161.2404 14.17085300974392"
      },
      "geometry": {
        "type": "Point",
        "coordinates": [
          -65.55838861652046,
          -79.71075513993306
        ]
      }
    },
    {
      "type": "Feature",
      "properties": {
        "norad_id": 30005,
        "name": "FENGYUN 1C DEB",
        "group": "fengyun-1c-debris",
        "lat": -16.81018373740083,
        "lon": -39.31810240928302,
        "alt_km": 1040.3440630440837,
        "timestamp": "2025-12-22T11:33:20.712498+00:00",
        "meta_object_name": "FENGYUN 1C DEB",
        "meta_object_id": "1999-025ME",
        "meta_epoch": "2025-12-18T20:37:37.606656",
        "meta_mean_motion": 13.52232242,
        "meta_eccentricity": 0.03470849,
        "meta_inclination": 99.3023,
        "meta_ra_of_asc_node": 314.4408,
        "meta_arg_of_pericenter": 77.8968,
        "meta_mean_anomaly": 286.0828,
        "meta_ephemeris_type": 0,
        "meta_classification_type": "U",
        "meta_norad_cat_id": 30005,
        "meta_element_set_no": 999,
        "meta_rev_at_epoch": 93029,
        "meta_bstar": 0.0012018224,
        "meta_mean_motion_dot": 1.119e-05,
        "meta_mean_motion_ddot": 0,
        "tle_line1": "1 30005U 99025ME  25352.85946304  .00001119  00000+0  12018-2 0  9994",
        "tle_line2": "2 30005  99.3023 314.4408 0347084  77.8968 286.0828 13.52232242930294"
      },
      "geometry": {
        "type": "Point",
        "coordinates": [
          -39.31810240928302,
          -16.81018373740083
        ]
      }
    },
    {
      "type": "Feature",
      "properties": {
        "norad_id": 30007,
        "name": "FENGYUN 1C DEB",
        "group": "fengyun-1c-debris",
        "lat": -72.86981861280827,
        "lon": 46.63873055396706,
        "alt_km": 815.5029670958666,
        "timestamp": "2025-12-22T11:33:20.712508+00:00",
        "meta_object_name": "FENGYUN 1C DEB",
        "meta_object_id": "1999-025MG",
        "meta_epoch": "2025-12-21T17:49:39.997056",
        "meta_mean_motion": 14.25484145,
        "meta_eccentricity": 0.0065423,
        "meta_inclination": 99.1788,
        "meta_ra_of_asc_node": 257.5069,
        "meta_arg_of_pericenter": 349.6295,
        "meta_mean_anomaly": 78.0325,
        "meta_ephemeris_type": 0,
        "meta_classification_type": "U",
        "meta_norad_cat_id": 30007,
        "meta_element_set_no": 999,
        "meta_rev_at_epoch": 97484,
        "meta_bstar": 0.0014044,
        "meta_mean_motion_dot": 3.346e-05,
        "meta_mean_motion_ddot": 0,
        "tle_line1": "1 30007U 99025MG  25355.74282404  .00003346  00000+0  14044-2 0  9996",
        "tle_line2": "2 30007  99.1788 257.5069 0065423 349.6295  78.0325 14.25484145974841"
      },
      "geometry": {
        "type": "Point",
        "coordinates": [
          46.63873055396706,
          -72.86981861280827
        ]
      }
    },
    {
      "type": "Feature",
      "properties": {
        "norad_id": 30008,
        "name": "FENGYUN 1C DEB",
        "group": "fengyun-1c-debris",
        "lat": 32.89525148872157,
        "lon": 140.35598676871675,
        "alt_km": 643.4808431454403,
        "timestamp": "2025-12-22T11:33:20.712518+00:00",
        "meta_object_name": "FENGYUN 1C DEB",
        "meta_object_id": "1999-025MH",
        "meta_epoch": "2025-12-22T02:59:50.179776",
        "meta_mean_motion": 14.66470579,
        "meta_eccentricity": 0.0039378,
        "meta_inclination": 99.3701,
        "meta_ra_of_asc_node": 313.8182,
        "meta_arg_of_pericenter": 162.6047,
        "meta_mean_anomaly": 262.4848,
        "meta_ephemeris_type": 0,
        "meta_classification_type": "U",
        "meta_norad_cat_id": 30008,
        "meta_element_set_no": 999,
        "meta_rev_at_epoch": 99197,
        "meta_bstar": 0.0018625,
        "meta_mean_motion_dot": 0.00010385,
        "meta_mean_motion_ddot": 0,
        "tle_line1": "1 30008U 99025MH  25356.12488634  .00010385  00000+0  18625-2 0  9993",
        "tle_line2": "2 30008  99.3701 313.8182 0039378 162.6047 262.4848 14.66470579991972"
      },
      "geometry": {
        "type": "Point",
        "coordinates": [
          140.35598676871675,
          32.89525148872157
        ]
      }
    },
    {
      "type": "Feature",
      "properties": {
        "norad_id": 30009,
        "name": "FENGYUN 1C DEB",
        "group": "fengyun-1c-debris",
        "lat": -29.941290868854978,
        "lon": -133.90651362125004,
        "alt_km": 888.3516277674862,
        "timestamp": "2025-12-22T11:33:20.712528+00:00",
        "meta_object_name": "FENGYUN 1C DEB",
        "meta_object_id": "1999-025MJ",
        "meta_epoch": "2025-12-21T17:27:33.026976",
        "meta_mean_motion": 14.04879425,
        "meta_eccentricity": 0.0064246,
        "meta_inclination": 99.0143,
        "meta_ra_of_asc_node": 50.5906,
        "meta_arg_of_pericenter": 309.5468,
        "meta_mean_anomaly": 50.0033,
        "meta_ephemeris_type": 0,
        "meta_classification_type": "U",
        "meta_norad_cat_id": 30009,
        "meta_element_set_no": 999,
        "meta_rev_at_epoch": 96609,
        "meta_bstar": 0.00081812,
        "meta_mean_motion_dot": 1.294e-05,
        "meta_mean_motion_ddot": 0,
        "tle_line1": "1 30009U 99025MJ  25355.72746559  .00001294  00000+0  81812-3 0  9990",
        "tle_line2": "2 30009  99.0143  50.5906 0064246 309.5468  50.0033 14.04879425966097"
      },
      "geometry": {
        "type": "Point",
        "coordinates": [
          -133.90651362125004,
          -29.941290868854978
        ]
      }
    },
    {
      "type": "Feature",
      "properties": {
        "norad_id": 30010,
        "name": "FENGYUN 1C DEB",
        "group": "fengyun-1c-debris",
        "lat": 26.3672292548995,
        "lon": -175.57753122758274,
        "alt_km": 854.8218262239225,
        "timestamp": "2025-12-22T11:33:20.712538+00:00",
        "meta_object_name": "FENGYUN 1C DEB",
        "meta_object_id": "1999-025MK",
        "meta_epoch": "2025-12-22T00:21:02.888928",
        "meta_mean_motion": 14.24993397,
        "meta_eccentricity": 0.0073082,
        "meta_inclination": 99.0695,
        "meta_ra_of_asc_node": 188.4815,
        "meta_arg_of_pericenter": 182.6215,
        "meta_mean_anomaly": 330.8632,
        "meta_ephemeris_type": 0,
        "meta_classification_type": "U",
        "meta_norad_cat_id": 30010,
        "meta_element_set_no": 999,
        "meta_rev_at_epoch": 98392,
        "meta_bstar": 0.00012115,
        "meta_mean_motion_dot": 2.44e-06,
        "meta_mean_motion_ddot": 0,
        "tle_line1": "1 30010U 99025MK  25356.01461677  .00000244  00000+0  12115-3 0  9994",
        "tle_line2": "2 30010  99.0695 188.4815 0073082 182.6215 330.8632 14.24993397983921"
      },
      "geometry": {
        "type": "Point",
        "coordinates": [
          -175.57753122758274,
          26.3672292548995
        ]
      }
    },
    {
      "type": "Feature",
      "properties": {
        "norad_id": 30012,
        "name": "FENGYUN 1C DEB",
        "group": "fengyun-1c-debris",
        "lat": 44.463708484190455,
        "lon": 40.388635332513864,
        "alt_km": 911.5912270140316,
        "timestamp": "2025-12-22T11:33:20.712547+00:00",
        "meta_object_name": "FENGYUN 1C DEB",
        "meta_object_id": "1999-025MM",
        "meta_epoch": "2025-12-22T02:56:06.592992",
        "meta_mean_motion": 13.85771876,
        "meta_eccentricity": 0.0137216,
        "meta_inclination": 99.4629,
        "meta_ra_of_asc_node": 49.4469,
        "meta_arg_of_pericenter": 120.8388,
        "meta_mean_anomaly": 295.0236,
        "meta_ephemeris_type": 0,
        "meta_classification_type": "U",
        "meta_norad_cat_id": 30012,
        "meta_element_set_no": 999,
        "meta_rev_at_epoch": 95678,
        "meta_bstar": 0.00027367,
        "meta_mean_motion_dot": 2.93e-06,
        "meta_mean_motion_ddot": 0,
        "tle_line1": "1 30012U 99025MM  25356.12229853  .00000293  00000+0  27367-3 0  9995",
        "tle_line2": "2 30012  99.4629  49.4469 0137216 120.8388 295.0236 13.85771876956788"
      },
      "geometry": {
        "type": "Point",
        "coordinates": [
          40.388635332513864,
          44.463708484190455
        ]
      }
    }
  ]
}